ONEWEB-0716             
1 55177U 23004AP  24303.93339461  .00000090  00000+0  19853-3 0  9991
2 55177  87.9073 124.4660 0001701  91.1648 268.9678 13.17651329 89193
ONEWEB-0717             
1 55178U 23004AQ  24303.91649895 -.00000365  00000+0 -97235-3 0  9992
2 55178  87.9072 124.4317 0000747 102.5912 257.5303 13.17648035 89247
ONEWEB-0719             
1 55179U 23004AR  24303.92664281  .00000064  00000+0  13171-3 0  9991
2 55179  87.9070 124.4148 0001653  95.7888 264.3432 13.17649856 89195
ONEWEB-0530             
1 55796U 23029A   24303.94509435 -.00000145  00000+0 -38812-3 0  9995
2 55796  87.9301  32.8879 0001546 121.4071 238.7214 13.20769860 82572
ONEWEB-0534             
1 55797U 23029B   24303.70520351 -.00000025  00000+0 -93656-4 0  9995
2 55797  87.9299  32.9426 0001831 100.6263 259.5076 13.20772144 82540
ONEWEB-0556             
1 55798U 23029C   24303.71151213 -.00000044  00000+0 -13967-3 0  9991
2 55798  87.9299  32.9341 0002266 122.4776 237.6576 13.20773096 82540
ONEWEB-0562             
1 55799U 23029D   24303.69888836  .00000017  00000+0  11014-4 0  9997
2 55799  87.9300  32.9284 0001869 134.7909 225.3376 13.20769825 82549
ONEWEB-0563             
1 55800U 23029E   24303.69259315  .00000046  00000+0  80076-4 0  9990
2 55800  87.9300  32.9443 0002066  97.9308 262.2060 13.20771376 82535
